#aV2012  2 29  0  0  0.00000000     288 DD+AD WGS84 FIT  NGA
## 1677 259200.00000000   300.00000000 55986 0.0000000000000
+   32     1  2  3  4  5  6  7  8  9 10 11 12 13 14 15 16 17
+         18 19 20 21 22 23 24 25 26 27 28 29 30 31 32  0  0
+          0  0  0  0  0  0  0  0  0  0  0  0  0  0  0  0  0
+          0  0  0  0  0  0  0  0  0  0  0  0  0  0  0  0  0
+          0  0  0  0  0  0  0  0  0  0  0  0  0  0  0  0  0
++         2  2  2  2  2  2  2  2  2  2  2  2  2  2  2  2  2
++         2  2  2  2  2  2  2  2  2  2  2  2  2  2  2  0  0
++         0  0  0  0  0  0  0  0  0  0  0  0  0  0  0  0  0
++         0  0  0  0  0  0  0  0  0  0  0  0  0  0  0  0  0
++         0  0  0  0  0  0  0  0  0  0  0  0  0  0  0  0  0
%c cc cc ccc ccc cccc cccc cccc cccc ccccc ccccc ccccc ccccc
%c cc cc ccc ccc cccc cccc cccc cccc ccccc ccccc ccccc ccccc
%f  0.0000000  0.000000000  0.00000000000  0.000000000000000
%f  0.0000000  0.000000000  0.00000000000  0.000000000000000
%i    0    0    0    0      0      0      0      0         0
%i    0    0    0    0      0      0      0      0         0
/*      NGA, ST. LOUIS,MO.                                  
/*   EPHEMERIS COMPUTED FROM  1 DAYS OF DATA
/*   EPOCHA SMOOTHER  
/* CCCCCCCCCCCCCCCCCCCCCCCCCCCCCCCCCCCCCCCCCCCCCCCCCCCCCCCCC
*  2012  2 29 22 45  0.00000000                                                 
P  1 -22618.805252 -13095.175846   4771.551516    223.003808                    
V  1  -3153.367969  -5873.815435 -30963.223537      0.084923                    
P  2   8349.826512  20296.564869  15406.800794    380.991268                    
V  2 -16672.990056  -9827.893778  21625.688069      0.015116                    
P  3  -2298.056564 -16677.295552 -20955.318433     16.216307                    
V  3  22804.765312 -11979.057790   7476.282539      0.050956                    
P  4  -3400.607000  16280.738508  20403.985960    109.080458                    
V  4 -21774.304727 -15341.541539   8832.295501      0.115280                    
P  5   2919.335340  24869.383400  -8691.154982   -288.546491                    
V  5  -4392.794523  10562.504478  28955.160730     -0.043665                    
P  6   3062.278312 -17409.999948 -19610.248661     31.441073                    
V  6  23552.674117  -9511.533335  12321.163979      0.006687                    
P  7 -20796.883518  -2290.827802 -16483.044181     60.862268                    
V  7 -15431.427906 -14076.741170  21160.326830      0.028940                    
P  8 -12931.889852   7332.866085 -22006.815285      0.694145                    
V  8 -20355.037311 -19120.092049   5024.476094      0.000567                    
P  9  21257.423574  15878.484211    162.271675    141.781702                    
V  9   -562.711320   2198.174337 -32297.834777      0.025096                    
P 10  -9770.815188  22872.034603   8485.436562    -30.676392                    
V 10  -1604.099988 -11643.912816  29092.592470     -0.012924                    
P 11 -22745.528774 -13386.694737  -4613.880354   -237.233724                    
V 11   6782.936316  -2201.062098 -29122.191118     -0.036191                    
P 12  11797.199173  12602.055893  20244.430706     55.272732                    
V 12  -4796.852663  25148.436867 -12680.935720      0.021551                    
P 13 -25762.329145   5026.438445   4209.878039    222.118425                    
V 13   4695.562576  -3436.513489  31675.064171     -0.021533                    
P 14  17473.719726 -15162.391927  13093.981371    195.569353                    
V 14  16092.862763  -3484.076261 -25986.270707      0.012818                    
P 15  17351.866710   7260.076941 -18839.733827    -92.454948                    
V 15 -21314.485834  10875.997486 -15236.526722      0.004108                    
P 16  -1279.012976 -25003.260045  -8363.882372   -225.513514                    
V 16   4145.102449 -10142.547302  29933.621201     -0.015742                    
P 17 -19334.563996  14863.139068  10391.606449    145.609959                    
V 17 -13111.363313   2105.436091 -28091.890176     -0.023610                    
P 18  15644.422951  -9044.880707 -19003.667020    183.978017                    
V 18  -1757.769969  25102.401009 -13518.641104      0.018106                    
P 19 -14341.217270 -10227.394289 -20026.246210   -240.920245                    
V 19  23831.671838  -8370.303809 -12440.741012     -0.038428                    
P 20 -14495.421045  -8497.124543  20421.211974     62.923328                    
V 20   3418.244874 -26197.191132  -8336.914925      0.007862                    
P 21  19184.498953  -1990.618725 -18032.255372   -207.646809                    
V 21  17616.043170  16012.462442  15961.235360     -0.024903                    
P 22  10490.308462 -22370.288055  -9415.238526    143.029439                    
V 22   1723.524413  12692.587260 -27843.297027      0.001117                    
P 23 -22667.654756  -1625.545005  14068.426775    228.438389                    
V 23  15748.886855  -8244.058312  24112.590856     -0.034392                    
P 24   7708.806805 -24515.786840   6232.027798   -255.044807                    
V 24   1369.437975   8372.101690  30786.131217      0.004159                    
P 25  15263.358212  -1979.865662  21618.057988     31.940705                    
V 25  -2998.751647  27328.943472   4665.159838      0.002461                    
P 26   3346.495497  14630.581533 -22514.894730    -85.356271                    
V 26 -25883.046802   7878.116361   1685.673868     -0.597507                    
P 27  18824.484557  18023.547201  -5628.544215    361.988741                    
V 27  -7443.497828  -3097.305964 -30863.797164      0.041171                    
P 28 -11711.595158  20363.363924 -11616.596587    117.825372                    
V 28    621.456022 -15820.507063 -27303.258363      0.038698                    
P 29  25358.661682  -4205.804910   6665.287644    289.407520                    
V 29  -6992.389388   5324.110640  30311.143811      0.036008                    
P 30   2170.804710 -26376.531500   1815.396271    -64.129107                    
V 30   2818.428341   2829.522980  31602.049019     -0.156590                    
P 31   2526.240120 -16086.830633  21128.849841    214.127125                    
V 31  21058.425840  15888.888450   9904.912928      0.044777                    
P 32  -9247.334821 -17549.938708  18100.879722   -414.261509                    
V 32   6304.088125 -21535.840962 -17415.426398     -0.050836                    
EOF
